{
  "type": "FeatureCollection",
  "features": [
    {
      "type": "Feature",
      "properties": {
        "norad_id": 65731,
        "name": "1998-067XK",
        "group": "stations",
        "lat": 17.604330989081053,
        "lon": 152.44837613792905,
        "alt_km": 372.01960319618775,
        "timestamp": "2025-12-12T14:39:16.790815+00:00",
        "meta_object_name": "1998-067XK",
        "meta_object_id": "1998-067XK",
        "meta_epoch": "2025-12-12T03:50:05.091360",
        "meta_mean_motion": 15.65576391,
        "meta_eccentricity": 0.00050531,
        "meta_inclination": 51.6278,
        "meta_ra_of_asc_node": 140.1747,
        "meta_arg_of_pericenter": 242.2687,
        "meta_mean_anomaly": 117.7796,
        "meta_ephemeris_type": 0,
        "meta_classification_type": "U",
        "meta_norad_cat_id": 65731,
        "meta_element_set_no": 999,
        "meta_rev_at_epoch": 1305,
        "meta_bstar": 0.001139871,
        "meta_mean_motion_dot": 0.00118061,
        "meta_mean_motion_ddot": 0,
        "tle_line1": "1 65731U 98067XK  25346.15978115  .00118061  00000+0  11399-2 0  9990",
        "tle_line2": "2 65731  51.6278 140.1747 0005053 242.2687 117.7796 15.65576391 13056"
      },
      "geometry": {
        "type": "Point",
        "coordinates": [
          152.44837613792905,
          17.604330989081053
        ]
      }
    },
    {
      "type": "Feature",
      "properties": {
        "norad_id": 65732,
        "name": "RSP-03",
        "group": "stations",
        "lat": -4.751386392715363,
        "lon": 133.40963871807884,
        "alt_km": 365.29952065769885,
        "timestamp": "2025-12-12T14:39:16.790825+00:00",
        "meta_object_name": "RSP-03",
        "meta_object_id": "1998-067XL",
        "meta_epoch": "2025-12-11T11:09:18.310464",
        "meta_mean_motion": 15.68184189,
        "meta_eccentricity": 0.00058259,
        "meta_inclination": 51.626,
        "meta_ra_of_asc_node": 143.0256,
        "meta_arg_of_pericenter": 242.1359,
        "meta_mean_anomaly": 117.9048,
        "meta_ephemeris_type": 0,
        "meta_classification_type": "U",
        "meta_norad_cat_id": 65732,
        "meta_element_set_no": 999,
        "meta_rev_at_epoch": 1296,
        "meta_bstar": 0.0016947067,
        "meta_mean_motion_dot": 0.00197326,
        "meta_mean_motion_ddot": 0,
        "tle_line1": "1 65732U 98067XL  25345.46479526  .00197326  00000+0  16947-2 0  9991",
        "tle_line2": "2 65732  51.6260 143.0256 0005825 242.1359 117.9048 15.68184189 12961"
      },
      "geometry": {
        "type": "Point",
        "coordinates": [
          133.40963871807884,
          -4.751386392715363
        ]
      }
    },
    {
      "type": "Feature",
      "properties": {
        "norad_id": 65733,
        "name": "GHS-01",
        "group": "stations",
        "lat": -51.57226276884204,
        "lon": 43.03683207067355,
        "alt_km": 345.57827120058937,
        "timestamp": "2025-12-12T14:39:16.790835+00:00",
        "meta_object_name": "GHS-01",
        "meta_object_id": "1998-067XM",
        "meta_epoch": "2025-12-11T17:42:59.976288",
        "meta_mean_motion": 15.74255219,
        "meta_eccentricity": 0.0007045,
        "meta_inclination": 51.6266,
        "meta_ra_of_asc_node": 140.35,
        "meta_arg_of_pericenter": 274.7166,
        "meta_mean_anomaly": 85.3028,
        "meta_ephemeris_type": 0,
        "meta_classification_type": "U",
        "meta_norad_cat_id": 65733,
        "meta_element_set_no": 999,
        "meta_rev_at_epoch": 1302,
        "meta_bstar": 0.0015474625,
        "meta_mean_motion_dot": 0.002337,
        "meta_mean_motion_ddot": 0,
        "tle_line1": "1 65733U 98067XM  25345.73819417  .00233700  00000+0  15475-2 0  9991",
        "tle_line2": "2 65733  51.6266 140.3500 0007045 274.7166  85.3028 15.74255219 13027"
      },
      "geometry": {
        "type": "Point",
        "coordinates": [
          43.03683207067355,
          -51.57226276884204
        ]
      }
    },
    {
      "type": "Feature",
      "properties": {
        "norad_id": 65941,
        "name": "YOTSUBA-KULOVER",
        "group": "stations",
        "lat": 25.430802124388215,
        "lon": -61.50769447940745,
        "alt_km": 386.41706104587774,
        "timestamp": "2025-12-12T14:39:16.790844+00:00",
        "meta_object_name": "YOTSUBA-KULOVER",
        "meta_object_id": "1998-067XN",
        "meta_epoch": "2025-12-11T19:34:16.498272",
        "meta_mean_motion": 15.59284629,
        "meta_eccentricity": 0.00014791,
        "meta_inclination": 51.6283,
        "meta_ra_of_asc_node": 144.6232,
        "meta_arg_of_pericenter": 240.6156,
        "meta_mean_anomaly": 119.469,
        "meta_ephemeris_type": 0,
        "meta_classification_type": "U",
        "meta_norad_cat_id": 65941,
        "meta_element_set_no": 999,
        "meta_rev_at_epoch": 971,
        "meta_bstar": 0.00099850147,
        "meta_mean_motion_dot": 0.00080384,
        "meta_mean_motion_ddot": 0,
        "tle_line1": "1 65941U 98067XN  25345.81546873  .00080384  00000+0  99850-3 0  9992",
        "tle_line2": "2 65941  51.6283 144.6232 0001479 240.6156 119.4690 15.59284629  9717"
      },
      "geometry": {
        "type": "Point",
        "coordinates": [
          -61.50769447940745,
          25.430802124388215
        ]
      }
    },
    {
      "type": "Feature",
      "properties": {
        "norad_id": 65942,
        "name": "BOTAN",
        "group": "stations",
        "lat": 45.86978467234345,
        "lon": -94.82039727640925,
        "alt_km": 374.3599785886008,
        "timestamp": "2025-12-12T14:39:16.790854+00:00",
        "meta_object_name": "BOTAN",
        "meta_object_id": "1998-067XP",
        "meta_epoch": "2025-12-12T03:25:38.383968",
        "meta_mean_motion": 15.62701818,
        "meta_eccentricity": 0.00032115,
        "meta_inclination": 51.6278,
        "meta_ra_of_asc_node": 142.3097,
        "meta_arg_of_pericenter": 233.7514,
        "meta_mean_anomaly": 126.3183,
        "meta_ephemeris_type": 0,
        "meta_classification_type": "U",
        "meta_norad_cat_id": 65942,
        "meta_element_set_no": 999,
        "meta_rev_at_epoch": 977,
        "meta_bstar": 0.0014131762,
        "meta_mean_motion_dot": 0.00130896,
        "meta_mean_motion_ddot": 0,
        "tle_line1": "1 65942U 98067XP  25346.14280537  .00130896  00000+0  14132-2 0  9995",
        "tle_line2": "2 65942  51.6278 142.3097 0003211 233.7514 126.3183 15.62701818  9771"
      },
      "geometry": {
        "type": "Point",
        "coordinates": [
          -94.82039727640925,
          45.86978467234345
        ]
      }
    },
    {
      "type": "Feature",
      "properties": {
        "norad_id": 65943,
        "name": "E-KAGAKU-1",
        "group": "stations",
        "lat": 25.257347539741627,
        "lon": -61.33396030891448,
        "alt_km": 384.06131315441326,
        "timestamp": "2025-12-12T14:39:16.790864+00:00",
        "meta_object_name": "E-KAGAKU-1",
        "meta_object_id": "1998-067XQ",
        "meta_epoch": "2025-12-10T06:39:08.237952",
        "meta_mean_motion": 15.5900432,
        "meta_eccentricity": 0.00052507,
        "meta_inclination": 51.6298,
        "meta_ra_of_asc_node": 152.3458,
        "meta_arg_of_pericenter": 191.2269,
        "meta_mean_anomaly": 168.8608,
        "meta_ephemeris_type": 0,
        "meta_classification_type": "U",
        "meta_norad_cat_id": 65943,
        "meta_element_set_no": 999,
        "meta_rev_at_epoch": 947,
        "meta_bstar": 0.0012588803,
        "meta_mean_motion_dot": 0.00100705,
        "meta_mean_motion_ddot": 0,
        "tle_line1": "1 65943U 98067XQ  25344.27717868  .00100705  00000+0  12589-2 0  9990",
        "tle_line2": "2 65943  51.6298 152.3458 0005250 191.2269 168.8608 15.59004320  9476"
      },
      "geometry": {
        "type": "Point",
        "coordinates": [
          -61.33396030891448,
          25.257347539741627
        ]
      }
    },
    {
      "type": "Feature",
      "properties": {
        "norad_id": 66052,
        "name": "HRC MONOBLOCK CAMERA",
        "group": "stations",
        "lat": 34.94972466301077,
        "lon": -71.47594011258155,
        "alt_km": 398.6287322301696,
        "timestamp": "2025-12-12T14:39:16.790874+00:00",
        "meta_object_name": "HRC MONOBLOCK CAMERA",
        "meta_object_id": "1998-067XR",
        "meta_epoch": "2025-12-12T01:44:18.858336",
        "meta_mean_motion": 15.54060412,
        "meta_eccentricity": 0.0003436,
        "meta_inclination": 51.6287,
        "meta_ra_of_asc_node": 144.8345,
        "meta_arg_of_pericenter": 180.6956,
        "meta_mean_anomaly": 179.403,
        "meta_ephemeris_type": 0,
        "meta_classification_type": "U",
        "meta_norad_cat_id": 66052,
        "meta_element_set_no": 999,
        "meta_rev_at_epoch": 873,
        "meta_bstar": 0.00072872732,
        "meta_mean_motion_dot": 0.00047939,
        "meta_mean_motion_ddot": 0,
        "tle_line1": "1 66052U 98067XR  25346.07244049  .00047939  00000+0  72873-3 0  9990",
        "tle_line2": "2 66052  51.6287 144.8345 0003436 180.6956 179.4030 15.54060412  8730"
      },
      "geometry": {
        "type": "Point",
        "coordinates": [
          -71.47594011258155,
          34.94972466301077
        ]
      }
    }
  ]
}